{
  "type": "FeatureCollection",
  "features": [
    {
      "type": "Feature",
      "properties": {
        "origin": [
          "41.38263975209437",
          "2.102825401916422"
        ],
        "destination": [
          "41.41019037679577",
          "2.136940780579329"
        ]
      },
      "geometry": {
        "coordinates": [
          [
            2.1027952,
            41.3826411
          ],
          [
            2.1028298999999997,
            41.382715499999996
          ],
          [
            2.1029013,
            41.3827895
          ],
          [
            2.1029288999999998,
            41.3828987
          ],
          [
            2.103366,
            41.383379399999995
          ],
          [
            2.1036728,
            41.3835926
          ],
          [
            2.1038080999999997,
            41.3836742
          ],
          [
            2.1038842,
            41.38391740000001
          ],
          [
            2.1039695,
            41.3840237
          ],
          [
            2.1040734,
            41.3841074
          ],
          [
            2.1044152,
            41.3846634
          ],
          [
            2.1046533,
            41.384967499999995
          ],
          [
            2.1045368,
            41.385031
          ],
          [
            2.1049766,
            41.3854909
          ],
          [
            2.1052451,
            41.38584650000001
          ],
          [
            2.1055447000000003,
            41.3861938
          ],
          [
            2.1055842,
            41.386285
          ],
          [
            2.1062336,
            41.387053099999996
          ],
          [
            2.1063243,
            41.3870236
          ],
          [
            2.1064084999999997,
            41.3871283
          ],
          [
            2.1063807,
            41.3871374
          ],
          [
            2.1066111999999997,
            41.387352299999996
          ],
          [
            2.1067242,
            41.387489699999996
          ],
          [
            2.10676,
            41.387643499999996
          ],
          [
            2.106902,
            41.387738299999995
          ],
          [
            2.1073233,
            41.388193099999995
          ],
          [
            2.1073388,
            41.388184900000006
          ],
          [
            2.1074482999999997,
            41.3883061
          ],
          [
            2.1073934999999997,
            41.388335
          ],
          [
            2.107535,
            41.388435799999996
          ],
          [
            2.1076881,
            41.3886131
          ],
          [
            2.107735,
            41.388694699999995
          ],
          [
            2.1082090000000004,
            41.3892354
          ],
          [
            2.1083415999999997,
            41.3891476
          ],
          [
            2.1084875999999997,
            41.3892451
          ],
          [
            2.1084025,
            41.3893481
          ],
          [
            2.1086462,
            41.3895136
          ],
          [
            2.108765,
            41.389617799999996
          ],
          [
            2.1099533999999998,
            41.390392999999996
          ],
          [
            2.1099731999999998,
            41.390389299999995
          ],
          [
            2.1100418999999997,
            41.3904382
          ],
          [
            2.1100307,
            41.390446999999995
          ],
          [
            2.1113302,
            41.391287299999995
          ],
          [
            2.1116215,
            41.3916355
          ],
          [
            2.1117376,
            41.3918824
          ],
          [
            2.1118053,
            41.3921527
          ],
          [
            2.1118949,
            41.3924563
          ],
          [
            2.1118821999999997,
            41.3924652
          ],
          [
            2.111906,
            41.3925555
          ],
          [
            2.1118829,
            41.3925658
          ],
          [
            2.1119299,
            41.392801000000006
          ],
          [
            2.1117709,
            41.392810399999995
          ],
          [
            2.1119730999999997,
            41.393781
          ],
          [
            2.1120107999999997,
            41.3938947
          ],
          [
            2.1121841000000003,
            41.394220499999996
          ],
          [
            2.1123312999999997,
            41.3943732
          ],
          [
            2.1125602,
            41.3945461
          ],
          [
            2.1128869,
            41.3948471
          ],
          [
            2.1130923,
            41.3950228
          ],
          [
            2.1133379,
            41.395201
          ],
          [
            2.1138337,
            41.395651799999996
          ],
          [
            2.1146209,
            41.396330999999996
          ],
          [
            2.1145397999999997,
            41.3963768
          ],
          [
            2.1146575999999997,
            41.3964838
          ],
          [
            2.1147443,
            41.396434899999996
          ],
          [
            2.1157605999999998,
            41.397309299999996
          ],
          [
            2.1158756,
            41.3972328
          ],
          [
            2.1161685,
            41.397467899999995
          ],
          [
            2.1161949,
            41.397448499999996
          ],
          [
            2.1162763,
            41.3974914
          ],
          [
            2.1162568999999998,
            41.397505699999996
          ],
          [
            2.1165379,
            41.397585
          ],
          [
            2.1169756,
            41.397669799999996
          ],
          [
            2.1175751,
            41.3978591
          ],
          [
            2.1180651999999998,
            41.3980865
          ],
          [
            2.1186265,
            41.398424299999995
          ],
          [
            2.1197564,
            41.3991488
          ],
          [
            2.1204376,
            41.399519399999996
          ],
          [
            2.1204475,
            41.3995098
          ],
          [
            2.1206519999999998,
            41.399614899999996
          ],
          [
            2.1207363,
            41.3996742
          ],
          [
            2.1211984999999998,
            41.3998263
          ],
          [
            2.1214227,
            41.3998813
          ],
          [
            2.1220418999999997,
            41.400113999999995
          ],
          [
            2.1221567,
            41.4001763
          ],
          [
            2.1222523,
            41.400257599999996
          ],
          [
            2.1227418,
            41.4005101
          ],
          [
            2.1230929,
            41.4007583
          ],
          [
            2.123425,
            41.4009267
          ],
          [
            2.1235246,
            41.401003599999996
          ],
          [
            2.1244967,
            41.4015523
          ],
          [
            2.1245076,
            41.4015412
          ],
          [
            2.1245832,
            41.401579
          ],
          [
            2.1245672,
            41.401595199999996
          ],
          [
            2.1257524,
            41.402245099999995
          ],
          [
            2.1269736999999997,
            41.4029305
          ],
          [
            2.1279513999999997,
            41.4034726
          ],
          [
            2.1280395,
            41.4035078
          ],
          [
            2.1294435,
            41.4043213
          ],
          [
            2.1301229999999998,
            41.4046914
          ],
          [
            2.1306664,
            41.4049971
          ],
          [
            2.1307407,
            41.4050297
          ],
          [
            2.1307297,
            41.4050412
          ],
          [
            2.1310118,
            41.405224
          ],
          [
            2.1314204,
            41.4054424
          ],
          [
            2.131503,
            41.4053749
          ],
          [
            2.1315971,
            41.4054309
          ],
          [
            2.1315345,
            41.405486499999995
          ],
          [
            2.1315763,
            41.4054956
          ],
          [
            2.1331132999999998,
            41.40635880000001
          ],
          [
            2.1331886,
            41.406366399999996
          ],
          [
            2.1334173,
            41.4062287
          ],
          [
            2.1335174,
            41.4063322
          ],
          [
            2.1334219,
            41.4063898
          ],
          [
            2.1337896,
            41.4066063
          ],
          [
            2.1339459,
            41.4067297
          ],
          [
            2.1338980999999997,
            41.406761599999996
          ],
          [
            2.1343855,
            41.4075426
          ],
          [
            2.134457,
            41.4076963
          ],
          [
            2.1344824,
            41.4080902
          ],
          [
            2.1344887,
            41.4081735
          ],
          [
            2.1344612,
            41.4081812
          ],
          [
            2.1344517,
            41.4086156
          ],
          [
            2.134487,
            41.4086925
          ],
          [
            2.1347844,
            41.408957699999995
          ],
          [
            2.1347734,
            41.4089641
          ],
          [
            2.1356119,
            41.409729899999995
          ],
          [
            2.1356349,
            41.4097091
          ],
          [
            2.1357095999999998,
            41.409766499999996
          ],
          [
            2.1356853,
            41.4097886
          ],
          [
            2.1358176,
            41.4098762
          ],
          [
            2.1366183,
            41.4100123
          ],
          [
            2.1366566,
            41.409948899999996
          ],
          [
            2.1367936,
            41.410008999999995
          ],
          [
            2.1367735,
            41.410042399999995
          ],
          [
            2.1369453,
            41.4100889
          ]
        ],
        "type": "LineString"
      }
    },
    {
      "type": "Feature",
      "properties": {
        "origin": "paseo de las aguas barcelona",
        "destination": "mirador de los cipreses barcelona"
      },
      "geometry": {
        "coordinates": [
          [
            2.1273855000000004,
            41.4192902
          ],
          [
            2.1275625,
            41.4191678
          ],
          [
            2.1279798999999997,
            41.418943899999995
          ],
          [
            2.1280687,
            41.4188811
          ],
          [
            2.1281271,
            41.41879240000001
          ],
          [
            2.1281306,
            41.4186835
          ],
          [
            2.128071,
            41.418599
          ],
          [
            2.1279781,
            41.4185307
          ],
          [
            2.1278515,
            41.418368799999996
          ],
          [
            2.1278663,
            41.418278799999996
          ],
          [
            2.1279471,
            41.418197299999996
          ],
          [
            2.128326,
            41.4179734
          ],
          [
            2.1284552999999997,
            41.4179154
          ],
          [
            2.1287954,
            41.4176411
          ],
          [
            2.1288958,
            41.417505399999996
          ],
          [
            2.1288443,
            41.4173543
          ],
          [
            2.1287401,
            41.4171785
          ],
          [
            2.1286328,
            41.417055
          ],
          [
            2.1286869999999998,
            41.4170285
          ],
          [
            2.1285784,
            41.416830499999996
          ],
          [
            2.1285157,
            41.416753899999996
          ],
          [
            2.1284038,
            41.4166664
          ],
          [
            2.1281263999999998,
            41.416625499999995
          ],
          [
            2.1278861,
            41.416626099999995
          ],
          [
            2.127409,
            41.4166867
          ],
          [
            2.1269287,
            41.416790999999996
          ],
          [
            2.1266715,
            41.4167892
          ],
          [
            2.1265787,
            41.4167408
          ],
          [
            2.1265291,
            41.416661399999995
          ],
          [
            2.1263356,
            41.4161449
          ],
          [
            2.1262394,
            41.4159874
          ],
          [
            2.1261607,
            41.4159186
          ],
          [
            2.1260228,
            41.4158471
          ],
          [
            2.1257527,
            41.4157739
          ],
          [
            2.1255284999999997,
            41.4156641
          ],
          [
            2.1254451999999997,
            41.415568300000004
          ],
          [
            2.1251165,
            41.4149636
          ],
          [
            2.1250885,
            41.4147988
          ],
          [
            2.1251298,
            41.4146757
          ],
          [
            2.125196,
            41.41449
          ],
          [
            2.1252557999999997,
            41.414357599999995
          ],
          [
            2.1253222000000003,
            41.414265199999996
          ],
          [
            2.1255113999999997,
            41.4140961
          ],
          [
            2.1255105999999997,
            41.414049399999996
          ],
          [
            2.1254685,
            41.4140203
          ],
          [
            2.1248638,
            41.4139315
          ],
          [
            2.1245467,
            41.4138334
          ],
          [
            2.1241752,
            41.4136495
          ],
          [
            2.1239888,
            41.4136279
          ],
          [
            2.1237225,
            41.413672399999996
          ],
          [
            2.1234886,
            41.413745899999995
          ],
          [
            2.1233855999999998,
            41.4138138
          ],
          [
            2.1232479,
            41.413965399999995
          ],
          [
            2.1232205,
            41.4141291
          ],
          [
            2.123426,
            41.414854
          ],
          [
            2.1233994,
            41.4149883
          ],
          [
            2.1232935,
            41.4151501
          ],
          [
            2.1231945999999997,
            41.4153482
          ],
          [
            2.1231247,
            41.4153871
          ],
          [
            2.1230484,
            41.4153763
          ],
          [
            2.12297,
            41.4153436
          ],
          [
            2.1227025,
            41.4151084
          ],
          [
            2.1225845,
            41.415039199999995
          ],
          [
            2.1225093,
            41.4150525
          ],
          [
            2.1224617,
            41.415178399999995
          ],
          [
            2.1224323,
            41.4154391
          ],
          [
            2.1223742,
            41.4155616
          ],
          [
            2.1222564999999998,
            41.4157308
          ],
          [
            2.1222387,
            41.415812599999995
          ],
          [
            2.122227,
            41.4160654
          ],
          [
            2.1221647,
            41.4161145
          ],
          [
            2.1218802,
            41.416232699999995
          ],
          [
            2.1217875,
            41.4163116
          ],
          [
            2.1217219,
            41.4164831
          ],
          [
            2.1217604,
            41.416765399999996
          ],
          [
            2.1217135,
            41.4168861
          ],
          [
            2.1215971,
            41.4169244
          ],
          [
            2.1215069000000004,
            41.416924099999996
          ],
          [
            2.1214155999999997,
            41.416878
          ],
          [
            2.12114,
            41.4165347
          ],
          [
            2.1209055,
            41.41603
          ],
          [
            2.1208161,
            41.415965199999995
          ],
          [
            2.1207075,
            41.4159596
          ],
          [
            2.1202752,
            41.416142
          ],
          [
            2.1201648,
            41.416133599999995
          ],
          [
            2.1200316999999997,
            41.4160337
          ],
          [
            2.1199871,
            41.4159483
          ],
          [
            2.1200007,
            41.4155735
          ],
          [
            2.1201011999999997,
            41.4153454
          ],
          [
            2.1202383,
            41.4151087
          ],
          [
            2.1202381999999997,
            41.415006399999996
          ],
          [
            2.120158,
            41.414940200000004
          ],
          [
            2.1200578,
            41.4149282
          ],
          [
            2.1195477,
            41.4149959
          ],
          [
            2.1192352,
            41.414972999999996
          ],
          [
            2.1188867,
            41.414898699999995
          ],
          [
            2.1188143,
            41.4148433
          ],
          [
            2.1187788999999997,
            41.4146977
          ],
          [
            2.1188764,
            41.4144195
          ],
          [
            2.1191435999999997,
            41.4139877
          ],
          [
            2.1191887,
            41.413821
          ],
          [
            2.119258,
            41.413543
          ],
          [
            2.1195586,
            41.4131813
          ],
          [
            2.1195923,
            41.4130648
          ],
          [
            2.1195638999999997,
            41.4126665
          ],
          [
            2.1195332,
            41.4125154
          ],
          [
            2.1194579,
            41.4124785
          ],
          [
            2.1194075,
            41.4124705
          ],
          [
            2.1192821,
            41.412487399999996
          ],
          [
            2.1189968,
            41.412593
          ],
          [
            2.1188995,
            41.41266350000001
          ],
          [
            2.1188199,
            41.412853299999995
          ],
          [
            2.1188021,
            41.4134373
          ],
          [
            2.1187429,
            41.4135123
          ],
          [
            2.1185804999999998,
            41.4135807
          ],
          [
            2.118264,
            41.413655399999996
          ],
          [
            2.1179188,
            41.4136674
          ],
          [
            2.1176302,
            41.413602399999995
          ],
          [
            2.1172706,
            41.4135055
          ],
          [
            2.1170435999999997,
            41.413501
          ],
          [
            2.11687,
            41.4135462
          ],
          [
            2.1166498,
            41.4136682
          ],
          [
            2.1165141,
            41.4138077
          ],
          [
            2.116278,
            41.4141146
          ],
          [
            2.1161765999999997,
            41.4141581
          ],
          [
            2.1160098,
            41.4141598
          ],
          [
            2.1158927999999997,
            41.4141069
          ],
          [
            2.1155485,
            41.4136916
          ],
          [
            2.1152588,
            41.413222999999995
          ],
          [
            2.115179,
            41.4131662
          ],
          [
            2.1149446,
            41.4131357
          ],
          [
            2.114687,
            41.413097500000006
          ],
          [
            2.1145429,
            41.413011399999995
          ],
          [
            2.1144536,
            41.41290000000001
          ],
          [
            2.114278,
            41.4122181
          ],
          [
            2.1140608999999997,
            41.412144
          ],
          [
            2.1139409,
            41.4121372
          ],
          [
            2.113734,
            41.412197899999995
          ],
          [
            2.1134273,
            41.4123995
          ],
          [
            2.1131189,
            41.4126766
          ],
          [
            2.1130062,
            41.4127314
          ],
          [
            2.1128449000000002,
            41.4127416
          ],
          [
            2.1127465,
            41.4127203
          ],
          [
            2.1123013999999998,
            41.4123725
          ],
          [
            2.1121429,
            41.412354
          ],
          [
            2.1117575,
            41.4125382
          ],
          [
            2.1116163,
            41.4126435
          ],
          [
            2.1113736999999997,
            41.4128988
          ],
          [
            2.1112647,
            41.4131953
          ],
          [
            2.1111656,
            41.413681800000006
          ],
          [
            2.1111149,
            41.4137049
          ],
          [
            2.1109659,
            41.413615199999995
          ],
          [
            2.1109134,
            41.413604199999995
          ],
          [
            2.1106756,
            41.4134532
          ],
          [
            2.1103765,
            41.413146399999995
          ],
          [
            2.1102617,
            41.4129043
          ],
          [
            2.1101788,
            41.4125681
          ],
          [
            2.110176,
            41.4123964
          ],
          [
            2.1101058,
            41.412312299999996
          ],
          [
            2.1099281,
            41.4122444
          ],
          [
            2.1097444000000003,
            41.4122645
          ],
          [
            2.1095829999999998,
            41.4123447
          ],
          [
            2.1094244,
            41.412469
          ],
          [
            2.1092267,
            41.4127619
          ],
          [
            2.1091302,
            41.4128439
          ],
          [
            2.1089929,
            41.4128833
          ],
          [
            2.1088435999999997,
            41.4128617
          ],
          [
            2.1085726,
            41.412736599999995
          ],
          [
            2.1083134,
            41.4126428
          ],
          [
            2.1082294,
            41.412577
          ],
          [
            2.1081753,
            41.4124343
          ],
          [
            2.1081841999999997,
            41.4123545
          ],
          [
            2.1081835,
            41.41248890000001
          ],
          [
            2.1082294,
            41.412577
          ],
          [
            2.1083724999999998,
            41.4126713
          ],
          [
            2.1086576999999997,
            41.4127711
          ],
          [
            2.1088904,
            41.412876399999995
          ],
          [
            2.109028,
            41.4128781
          ],
          [
            2.1091302,
            41.4128439
          ],
          [
            2.1092267,
            41.4127619
          ],
          [
            2.1094619,
            41.412430099999995
          ],
          [
            2.1096785,
            41.4122888
          ],
          [
            2.1098736,
            41.412243
          ],
          [
            2.1099688999999997,
            41.4122519
          ],
          [
            2.1101324,
            41.4123368
          ],
          [
            2.110176,
            41.4123964
          ],
          [
            2.1101938,
            41.4126627
          ],
          [
            2.1103042999999997,
            41.413010799999995
          ],
          [
            2.1103765,
            41.413146399999995
          ],
          [
            2.110719,
            41.4134896
          ],
          [
            2.1109134,
            41.413604199999995
          ],
          [
            2.1109659,
            41.413615199999995
          ],
          [
            2.1110777,
            41.413671
          ],
          [
            2.1111125,
            41.4136385
          ],
          [
            2.1112187,
            41.4131424
          ],
          [
            2.1113178,
            41.4128797
          ],
          [
            2.1115702,
            41.412613199999996
          ],
          [
            2.1118031,
            41.4124537
          ],
          [
            2.1120894,
            41.412317099999996
          ],
          [
            2.112215,
            41.4123105
          ],
          [
            2.1122505,
            41.412315799999995
          ],
          [
            2.1123013999999998,
            41.4123725
          ],
          [
            2.1127465,
            41.4127203
          ],
          [
            2.1129048999999998,
            41.4127424
          ],
          [
            2.1130549,
            41.412714
          ],
          [
            2.113188,
            41.4126133
          ],
          [
            2.1135061,
            41.4123447
          ],
          [
            2.113734,
            41.412197899999995
          ],
          [
            2.1139748,
            41.412135899999996
          ],
          [
            2.1141324,
            41.412160199999995
          ],
          [
            2.114278,
            41.4122181
          ],
          [
            2.1142673,
            41.412157799999996
          ],
          [
            2.114278,
            41.4122181
          ],
          [
            2.1140608999999997,
            41.412144
          ],
          [
            2.1139409,
            41.4121372
          ],
          [
            2.113734,
            41.412197899999995
          ],
          [
            2.1134273,
            41.4123995
          ],
          [
            2.1131189,
            41.4126766
          ],
          [
            2.1130062,
            41.4127314
          ],
          [
            2.1128449000000002,
            41.4127416
          ],
          [
            2.1127465,
            41.4127203
          ],
          [
            2.1123013999999998,
            41.4123725
          ],
          [
            2.1121429,
            41.412354
          ],
          [
            2.1117575,
            41.4125382
          ],
          [
            2.1116163,
            41.4126435
          ],
          [
            2.1113736999999997,
            41.4128988
          ],
          [
            2.1112647,
            41.4131953
          ],
          [
            2.1111656,
            41.413681800000006
          ],
          [
            2.1111149,
            41.4137049
          ],
          [
            2.1109659,
            41.413615199999995
          ],
          [
            2.1109134,
            41.413604199999995
          ],
          [
            2.1106756,
            41.4134532
          ],
          [
            2.1103765,
            41.413146399999995
          ],
          [
            2.1102617,
            41.4129043
          ],
          [
            2.1101788,
            41.4125681
          ],
          [
            2.110176,
            41.4123964
          ],
          [
            2.1101058,
            41.412312299999996
          ],
          [
            2.1099281,
            41.4122444
          ],
          [
            2.1097444000000003,
            41.4122645
          ],
          [
            2.1095829999999998,
            41.4123447
          ],
          [
            2.1094244,
            41.412469
          ],
          [
            2.1092267,
            41.4127619
          ],
          [
            2.1091302,
            41.4128439
          ],
          [
            2.1089929,
            41.4128833
          ],
          [
            2.1088435999999997,
            41.4128617
          ],
          [
            2.1085726,
            41.412736599999995
          ],
          [
            2.1083134,
            41.4126428
          ],
          [
            2.1082294,
            41.412577
          ],
          [
            2.1081753,
            41.4124343
          ],
          [
            2.1082095,
            41.412185799999996
          ],
          [
            2.1081686,
            41.4117812
          ],
          [
            2.1081995,
            41.411529
          ],
          [
            2.1081528,
            41.4114668
          ],
          [
            2.1080739,
            41.4114442
          ],
          [
            2.107602,
            41.411429299999995
          ],
          [
            2.1072498,
            41.4114656
          ],
          [
            2.107015,
            41.411531
          ],
          [
            2.1065644999999997,
            41.41179590000001
          ],
          [
            2.1064546,
            41.411819699999995
          ],
          [
            2.1063283999999998,
            41.411784399999995
          ],
          [
            2.106245,
            41.411699299999995
          ],
          [
            2.1061734999999997,
            41.4114455
          ],
          [
            2.1060920999999997,
            41.4113944
          ],
          [
            2.105851,
            41.4113183
          ],
          [
            2.1057745999999997,
            41.4112365
          ],
          [
            2.1057631,
            41.4111286
          ],
          [
            2.1057943999999997,
            41.411050599999996
          ],
          [
            2.1058767,
            41.4109766
          ],
          [
            2.1068123,
            41.4102873
          ],
          [
            2.1069375,
            41.4100732
          ],
          [
            2.1069336000000005,
            41.4099893
          ],
          [
            2.1067142999999997,
            41.4098328
          ],
          [
            2.106562,
            41.4097124
          ],
          [
            2.1065267999999997,
            41.409585799999995
          ],
          [
            2.1065928,
            41.4092031
          ],
          [
            2.1065396,
            41.4091312
          ],
          [
            2.1057254,
            41.408763199999996
          ],
          [
            2.1055527000000005,
            41.408727299999995
          ],
          [
            2.1051287999999997,
            41.4088044
          ],
          [
            2.1050249,
            41.4088357
          ],
          [
            2.1047165,
            41.4090085
          ],
          [
            2.1046389,
            41.409014899999995
          ],
          [
            2.1044731,
            41.408923099999996
          ],
          [
            2.1042101,
            41.4088618
          ],
          [
            2.1041336,
            41.4088055
          ],
          [
            2.1041018,
            41.4086873
          ],
          [
            2.1041092999999997,
            41.4086259
          ],
          [
            2.1041798,
            41.4084802
          ],
          [
            2.1041554,
            41.4083308
          ],
          [
            2.1041197,
            41.4082694
          ],
          [
            2.1036823,
            41.407975799999996
          ],
          [
            2.1036262999999997,
            41.407866
          ],
          [
            2.1036322,
            41.407773299999995
          ],
          [
            2.1036481,
            41.4077197
          ],
          [
            2.1037661,
            41.4076094
          ],
          [
            2.103827,
            41.4075834
          ],
          [
            2.104125,
            41.4075553
          ],
          [
            2.104228,
            41.407522799999995
          ],
          [
            2.1046356999999998,
            41.4073223
          ],
          [
            2.1046845,
            41.4072284
          ],
          [
            2.1044628,
            41.406676399999995
          ],
          [
            2.1044009,
            41.4064616
          ],
          [
            2.1044205,
            41.4063679
          ],
          [
            2.1044776,
            41.4062342
          ],
          [
            2.1045813,
            41.406133499999996
          ],
          [
            2.1047131,
            41.4060899
          ],
          [
            2.1047463,
            41.406091599999996
          ],
          [
            2.1048044,
            41.406067199999995
          ],
          [
            2.1048709999999997,
            41.4061315
          ],
          [
            2.1049968999999997,
            41.4061813
          ],
          [
            2.1054064000000006,
            41.406506199999995
          ],
          [
            2.1055547,
            41.4065589
          ],
          [
            2.1057663,
            41.4065693
          ],
          [
            2.1060757,
            41.406499
          ],
          [
            2.1062179999999997,
            41.4065114
          ],
          [
            2.1063889,
            41.4065823
          ],
          [
            2.1065034,
            41.4066894
          ],
          [
            2.1066341,
            41.406856399999995
          ],
          [
            2.1068278,
            41.406927599999996
          ],
          [
            2.1069595999999997,
            41.4069249
          ],
          [
            2.1070828,
            41.4068685
          ],
          [
            2.1073958,
            41.4065918
          ],
          [
            2.1075627999999997,
            41.406532399999996
          ],
          [
            2.1076938,
            41.406535000000005
          ],
          [
            2.1078522,
            41.406578200000006
          ],
          [
            2.1079064,
            41.4066225
          ],
          [
            2.1081588,
            41.4067553
          ],
          [
            2.1084972,
            41.4070144
          ],
          [
            2.1085552,
            41.407034100000004
          ],
          [
            2.1087701,
            41.407039499999996
          ],
          [
            2.1089048,
            41.4070013
          ],
          [
            2.1089864,
            41.406949999999995
          ],
          [
            2.1090725,
            41.406828499999996
          ],
          [
            2.1090849,
            41.4066724
          ],
          [
            2.1088956999999997,
            41.4060464
          ],
          [
            2.1087788,
            41.40586090000001
          ],
          [
            2.1086435,
            41.4057707
          ],
          [
            2.1080677,
            41.4054716
          ],
          [
            2.1079163999999997,
            41.4053585
          ],
          [
            2.1078428,
            41.4052753
          ],
          [
            2.1076615999999997,
            41.4048477
          ],
          [
            2.1076068,
            41.404780599999995
          ],
          [
            2.1075144999999997,
            41.4047069
          ],
          [
            2.1073389,
            41.4046137
          ],
          [
            2.1072832,
            41.4045159
          ],
          [
            2.1074436,
            41.4041287
          ],
          [
            2.1074394,
            41.403810799999995
          ],
          [
            2.1073895,
            41.4036201
          ],
          [
            2.1072782,
            41.4034687
          ],
          [
            2.1071648,
            41.4033742
          ],
          [
            2.1070736,
            41.4033187
          ],
          [
            2.1069633,
            41.4032792
          ],
          [
            2.1066702999999998,
            41.4032388
          ],
          [
            2.1064355000000003,
            41.4032316
          ],
          [
            2.1061709,
            41.4032791
          ],
          [
            2.1059750999999998,
            41.403267199999995
          ],
          [
            2.1059183000000004,
            41.4032279
          ],
          [
            2.1058919,
            41.4030442
          ],
          [
            2.1058603,
            41.4028059
          ],
          [
            2.1057574999999997,
            41.4025599
          ],
          [
            2.1055352,
            41.4023603
          ],
          [
            2.1054709,
            41.4023222
          ],
          [
            2.1052744999999997,
            41.4022577
          ],
          [
            2.1051546000000005,
            41.4021756
          ],
          [
            2.1051554,
            41.4020742
          ],
          [
            2.1052948,
            41.4018412
          ],
          [
            2.1052871,
            41.4017452
          ],
          [
            2.1052019,
            41.4015328
          ],
          [
            2.105032,
            41.4012787
          ],
          [
            2.1047607999999998,
            41.401014599999996
          ],
          [
            2.1047059999999997,
            41.4009742
          ],
          [
            2.1044792,
            41.4009076
          ],
          [
            2.1044336,
            41.400867
          ],
          [
            2.1044488,
            41.400790099999995
          ],
          [
            2.1045222,
            41.4006536
          ],
          [
            2.104542,
            41.4005559
          ],
          [
            2.1045157999999997,
            41.4002263
          ],
          [
            2.1045002999999998,
            41.3997995
          ],
          [
            2.1044271,
            41.3995424
          ],
          [
            2.1042698,
            41.3994035
          ],
          [
            2.1041449,
            41.3993593
          ],
          [
            2.1040139,
            41.3993551
          ],
          [
            2.1039206,
            41.399316999999996
          ],
          [
            2.1038747,
            41.3992815
          ],
          [
            2.1038451,
            41.3992193
          ],
          [
            2.103824,
            41.399048199999996
          ],
          [
            2.1037254,
            41.398891899999995
          ],
          [
            2.103554,
            41.398730199999996
          ],
          [
            2.1032333999999997,
            41.3985139
          ],
          [
            2.1030137,
            41.3984155
          ],
          [
            2.1027458,
            41.3981852
          ],
          [
            2.102629,
            41.3981044
          ],
          [
            2.1024995,
            41.3980507
          ],
          [
            2.1022879999999997,
            41.3980381
          ],
          [
            2.1019099999999997,
            41.398046
          ],
          [
            2.1018261,
            41.3980329
          ],
          [
            2.1017745,
            41.3980029
          ],
          [
            2.1016154,
            41.3976787
          ],
          [
            2.1013848,
            41.397365699999995
          ],
          [
            2.1012554999999997,
            41.397209
          ],
          [
            2.101168,
            41.3970377
          ],
          [
            2.1011156,
            41.3967549
          ],
          [
            2.1010329,
            41.3965604
          ],
          [
            2.1008019,
            41.39615510000001
          ],
          [
            2.1005485999999998,
            41.3958078
          ],
          [
            2.1005868000000003,
            41.3956869
          ],
          [
            2.100664,
            41.3955212
          ],
          [
            2.1007762999999997,
            41.395180599999996
          ],
          [
            2.1007492,
            41.3950569
          ],
          [
            2.1005922000000004,
            41.3948696
          ],
          [
            2.1002985,
            41.3945818
          ],
          [
            2.1002568999999998,
            41.3945186
          ],
          [
            2.1002066999999998,
            41.3943276
          ],
          [
            2.1001526999999998,
            41.394222
          ],
          [
            2.1000841,
            41.3941337
          ],
          [
            2.1000948,
            41.3940555
          ],
          [
            2.1004442,
            41.3936559
          ],
          [
            2.1005840000000005,
            41.3934144
          ],
          [
            2.1006488,
            41.3930923
          ],
          [
            2.1006304,
            41.392813
          ],
          [
            2.1006803,
            41.3925468
          ],
          [
            2.1007816,
            41.3923808
          ],
          [
            2.1009851,
            41.392090599999996
          ],
          [
            2.1010085,
            41.391942799999995
          ],
          [
            2.1009904,
            41.391891
          ],
          [
            2.1007423,
            41.3915985
          ],
          [
            2.1006033,
            41.3913856
          ],
          [
            2.1005265,
            41.3907253
          ],
          [
            2.1004831999999998,
            41.3906391
          ],
          [
            2.1003604,
            41.3904984
          ],
          [
            2.1002137999999997,
            41.390239099999995
          ],
          [
            2.1001266,
            41.389992199999995
          ],
          [
            2.1001771,
            41.3899638
          ],
          [
            2.1001358999999997,
            41.3899313
          ],
          [
            2.1001027,
            41.3899295
          ]
        ],
        "type": "LineString"
      }
    },
    {
      "type": "Feature",
      "properties": {},
      "geometry": {
        "coordinates": [
          [
            2.1088480767019178,
            41.38363907886665
          ],
          [
            2.2189507786266915,
            41.411320860017355
          ]
        ],
        "type": "LineString"
      }
    },
    {
      "type": "Feature",
      "properties": {
        "origin": "Turisme de Barcelona Oficina Colón",
        "destination": "iDive Barcelona PADI Diving School"
      },
      "geometry": {
        "coordinates": [
          [
            2.1783457,
            41.3756233
          ],
          [
            2.1785305999999998,
            41.3760191
          ],
          [
            2.1787441,
            41.3762791
          ],
          [
            2.1792035,
            41.376718499999996
          ],
          [
            2.1821300999999997,
            41.3803281
          ],
          [
            2.1823745999999997,
            41.380521099999996
          ],
          [
            2.1826726,
            41.3806766
          ],
          [
            2.1828312999999997,
            41.3807316
          ],
          [
            2.1829125,
            41.380671299999996
          ],
          [
            2.1830732,
            41.3806179
          ],
          [
            2.1831036999999998,
            41.380576
          ],
          [
            2.1833506,
            41.3806246
          ],
          [
            2.1835142,
            41.380603099999995
          ],
          [
            2.1844665,
            41.3808636
          ],
          [
            2.1847396,
            41.3808763
          ],
          [
            2.1860265,
            41.3802686
          ],
          [
            2.1861346,
            41.380229899999996
          ],
          [
            2.1862619,
            41.3802545
          ],
          [
            2.1864244999999998,
            41.380223099999995
          ],
          [
            2.1870333,
            41.3787502
          ],
          [
            2.1875087,
            41.3775682
          ],
          [
            2.1880428999999997,
            41.376964
          ],
          [
            2.1881325,
            41.3768975
          ],
          [
            2.1883437999999997,
            41.3768235
          ],
          [
            2.1884741,
            41.376477799999996
          ],
          [
            2.1887753,
            41.375764499999995
          ],
          [
            2.188749,
            41.3755595
          ],
          [
            2.1888266,
            41.375556200000005
          ],
          [
            2.1888286999999997,
            41.375630699999995
          ],
          [
            2.1890327,
            41.375627699999995
          ],
          [
            2.1890243,
            41.3755046
          ],
          [
            2.1892739999999997,
            41.3755622
          ],
          [
            2.1892866,
            41.3755054
          ],
          [
            2.1892479,
            41.3754807
          ],
          [
            2.1893685,
            41.3751957
          ],
          [
            2.1896744,
            41.374743699999996
          ],
          [
            2.1897683999999997,
            41.3747347
          ],
          [
            2.1896416999999997,
            41.3743821
          ],
          [
            2.1893975,
            41.3735814
          ],
          [
            2.1893975,
            41.3735814
          ],
          [
            2.1888006,
            41.3700882
          ],
          [
            2.1888103,
            41.369949
          ],
          [
            2.1887005999999998,
            41.369924399999995
          ],
          [
            2.1890294999999997,
            41.3694519
          ],
          [
            2.1891938,
            41.3692637
          ],
          [
            2.1895545,
            41.3687423
          ],
          [
            2.1894841,
            41.3683511
          ],
          [
            2.1892897,
            41.3678521
          ],
          [
            2.1892622,
            41.3678378
          ],
          [
            2.1899287,
            41.367583599999996
          ],
          [
            2.1899717,
            41.3675308
          ],
          [
            2.1899954,
            41.3673844
          ],
          [
            2.1875552,
            41.3636092
          ],
          [
            2.1900027,
            41.367412800000004
          ],
          [
            2.1899488,
            41.3675698
          ],
          [
            2.1894625,
            41.367765
          ],
          [
            2.1892622,
            41.3678378
          ],
          [
            2.1893,
            41.367865599999995
          ],
          [
            2.1894841,
            41.3683511
          ],
          [
            2.1895545,
            41.3687423
          ],
          [
            2.1891526999999997,
            41.3693224
          ],
          [
            2.1890294999999997,
            41.3694519
          ],
          [
            2.1887005999999998,
            41.369924399999995
          ],
          [
            2.1888103,
            41.369949
          ],
          [
            2.188805,
            41.3701234
          ],
          [
            2.1894088,
            41.3736217
          ],
          [
            2.1896663999999997,
            41.3744626
          ],
          [
            2.1897683999999997,
            41.3747347
          ],
          [
            2.1899056999999997,
            41.3747584
          ],
          [
            2.1899583,
            41.374811
          ],
          [
            2.1903056999999997,
            41.3757801
          ],
          [
            2.19043,
            41.3758881
          ],
          [
            2.1905182,
            41.376047899999996
          ],
          [
            2.1907508,
            41.3766305
          ],
          [
            2.1908322,
            41.376753799999996
          ],
          [
            2.1909546,
            41.3768969
          ],
          [
            2.1914257,
            41.3776594
          ],
          [
            2.1915741,
            41.377882899999996
          ],
          [
            2.1917109999999997,
            41.378133399999996
          ],
          [
            2.1922018,
            41.3788458
          ],
          [
            2.1922013000000002,
            41.378869699999996
          ],
          [
            2.1922964,
            41.3789237
          ],
          [
            2.1936146000000005,
            41.3810317
          ],
          [
            2.1955894,
            41.3843095
          ],
          [
            2.1958835999999997,
            41.3846145
          ],
          [
            2.1967368,
            41.3852051
          ],
          [
            2.19731,
            41.3856501
          ],
          [
            2.1973918000000006,
            41.385689899999996
          ],
          [
            2.1978092,
            41.386021799999995
          ],
          [
            2.1979227000000003,
            41.3861315
          ],
          [
            2.1979954999999998,
            41.38623630000001
          ],
          [
            2.1980580000000005,
            41.3862062
          ],
          [
            2.1981345,
            41.3862112
          ],
          [
            2.1983295,
            41.386312499999995
          ],
          [
            2.1983382,
            41.386393999999996
          ],
          [
            2.1983239,
            41.3864253
          ],
          [
            2.1978607,
            41.3867522
          ],
          [
            2.1977824999999998,
            41.3867846
          ],
          [
            2.1977659,
            41.3868307
          ],
          [
            2.1975151,
            41.387025699999995
          ],
          [
            2.199614,
            41.388613899999996
          ],
          [
            2.2002215000000005,
            41.389102699999995
          ],
          [
            2.2001679,
            41.389145299999996
          ],
          [
            2.2001464,
            41.389189599999995
          ],
          [
            2.2001813,
            41.38926790000001
          ],
          [
            2.2006579,
            41.3898967
          ],
          [
            2.2012508,
            41.390385699999996
          ],
          [
            2.2014707,
            41.390534599999995
          ],
          [
            2.2018221,
            41.390729799999995
          ],
          [
            2.2022003,
            41.3908847
          ],
          [
            2.2029674,
            41.3911302
          ],
          [
            2.2033959999999997,
            41.391310999999995
          ],
          [
            2.2042088,
            41.391746
          ],
          [
            2.2044018999999997,
            41.391837599999995
          ],
          [
            2.2045543,
            41.391977000000004
          ],
          [
            2.2046799999999998,
            41.3921295
          ],
          [
            2.2048798,
            41.3923114
          ],
          [
            2.2052579999999997,
            41.392784299999995
          ],
          [
            2.2055321,
            41.3932852
          ],
          [
            2.205604,
            41.3934362
          ],
          [
            2.2058185999999997,
            41.3937521
          ],
          [
            2.2061082000000005,
            41.3940962
          ],
          [
            2.2066366,
            41.3945952
          ],
          [
            2.2088585,
            41.3963138
          ],
          [
            2.2097226,
            41.3968924
          ],
          [
            2.2101052,
            41.397044199999996
          ],
          [
            2.2104429,
            41.3971345
          ],
          [
            2.2120406999999997,
            41.399314
          ],
          [
            2.2121291,
            41.3994408
          ],
          [
            2.2121972999999997,
            41.3994858
          ],
          [
            2.2126443,
            41.4000341
          ],
          [
            2.2129839,
            41.4003576
          ],
          [
            2.2132272,
            41.4005127
          ],
          [
            2.2131838,
            41.4005842
          ],
          [
            2.2135778999999998,
            41.4007302
          ],
          [
            2.2137651,
            41.400824899999996
          ],
          [
            2.2139715,
            41.400980499999996
          ],
          [
            2.2141607,
            41.4011869
          ],
          [
            2.2143591,
            41.401486399999996
          ],
          [
            2.2145245,
            41.401686999999995
          ],
          [
            2.2145986,
            41.4017227
          ],
          [
            2.2148675,
            41.4021416
          ],
          [
            2.2151316,
            41.4024654
          ],
          [
            2.2155182,
            41.402856299999996
          ],
          [
            2.2159553,
            41.4032264
          ],
          [
            2.21643,
            41.403577399999996
          ],
          [
            2.2170625999999998,
            41.403977499999996
          ],
          [
            2.2188746,
            41.40535
          ],
          [
            2.2190554,
            41.4054545
          ],
          [
            2.219563080520074,
            41.40585022044976
          ]
        ],
        "type": "LineString"
      }
    }
  ]
}